CCSDS_OEM_VERS = 2.0  
CREATION_DATE  = 2024-11-15T16:33:14
ORIGINATOR     = ESOC/OPS-GFA                            
 
 



META_START
OBJECT_NAME          = LISA                                    
OBJECT_ID            = -1000                                   
CENTER_NAME          = SUN                     
REF_FRAME            = EME2000 
TIME_SYSTEM          = TCB
START_TIME           = 2037-06-11T00:00:29.574159            
STOP_TIME            = 2048-03-04T23:12:28.300914            
INTERPOLATION        = HERMITE                                 
INTERPOLATION_DEGREE = 7                                       
META_STOP

2037-06-11T00:00:29.574159    24785903.385459  -134511219.411792   -59404540.811879  29.4861357   4.4224068   2.0758337    -0.000000992139     0.000005383500     0.000002377530
2037-06-13T19:25:14.512263    31909727.280164  -133279909.602823   -58830975.231175  29.2107686   5.7229012   2.6500300    -0.000001276708     0.000005331932     0.000002353564
2037-06-16T14:49:59.450368    38958374.376053  -131734632.469769   -58118821.552667  28.8667265   7.0093431   3.2177314    -0.000001557985     0.000005267720     0.000002324018
2037-06-19T10:14:44.388472    45915281.913460  -129879169.083196   -57269819.574311  28.4548903   8.2786852   3.7775935    -0.000001835297     0.000005191042     0.000002288974
2037-06-22T05:39:29.326576    52764120.522797  -127718034.285792   -56286032.748766  27.9763033   9.5279271   4.3282932    -0.000002107978     0.000005102109     0.000002248526
2037-06-25T14:04:41.584362    60770785.544393  -124747402.397357   -54939450.761754  27.3197424  10.9878276   4.9714627    -0.000002426314     0.000004980319     0.000002193359
2037-06-28T22:29:53.842147    68574143.322978  -121359449.521086   -53409078.353573  26.5722372  12.4100479   5.5975949    -0.000002736061     0.000004841889     0.000002130866
2037-07-02T06:55:06.099932    76148239.285728  -117565775.188518   -51700152.065130  25.7364253  13.7898441   6.2046017    -0.000003036181     0.000004687337     0.000002061279
2037-07-05T15:20:18.357717    83467924.559149  -113379329.161210   -49818502.480277  24.8152396  15.1226299   6.7904664    -0.000003325675     0.000004517233     0.000001984856
2037-07-09T00:04:40.271891    90536314.761642  -108795503.185362   -47762078.377377  23.8077527  16.4089723   7.3554358    -0.000003604664     0.000004331438     0.000001901534
2037-07-12T08:49:02.186066    97300255.850585  -103845839.533953   -45545048.730289  22.7209830  17.6392062   7.8952628    -0.000003871058     0.000004131277     0.000001811908
2037-07-15T17:33:24.100240   103737248.354037   -98547243.871888   -43174983.396670  21.5587198  18.8092602   8.4081616    -0.000004123982     0.000003917475     0.000001716302
2037-07-19T02:17:46.014415   109825929.163635   -92917773.406044   -40659957.049278  20.3249983  19.9152805   8.8924438    -0.000004362619     0.000003690802     0.000001615060
2037-07-22T11:05:08.487445   115549577.938452   -86972789.522351   -38006832.977783  19.0232558  20.9542659   9.3467956    -0.000004586338     0.000003451916     0.000001508475
2037-07-25T19:52:30.960476   120885382.578661   -80735889.452607   -35226142.516837  17.6587250  21.9221191   9.7694257    -0.000004794274     0.000003201800     0.000001396987
2037-07-29T04:39:53.433506   125815758.954819   -74228224.266903   -32327313.690827  16.2360921  22.8157013  10.1589645    -0.000004985778     0.000002941335     0.000001280987
2037-08-01T13:27:15.906537   130324511.336841   -67471819.961737   -29320155.948446  14.7602238  23.6321343  10.5141584    -0.000005160257     0.000002671431     0.000001160880
2037-08-04T22:25:53.526521   134405819.986534   -60473047.985885   -26207511.458507  13.2325602  24.3704235  10.8345733    -0.000005317526     0.000002392368     0.000001036791
2037-08-08T07:24:31.146504   138035359.947219   -53271020.189850   -23006781.026526  11.6616782  25.0262326  11.1183256    -0.000005456689     0.000002105727     0.000000909424
2037-08-11T16:23:08.766488   141201308.211774   -45890089.147783   -19728785.614848  10.0529173  25.5974955  11.3645231    -0.000005577339     0.000001812491     0.000000779214
2037-08-15T01:21:46.386471   143893413.352448   -38355167.672738   -16384587.656773   8.4117257  26.0824352  11.5724016    -0.000005679133     0.000001513662     0.000000646605
2037-08-18T10:32:03.441412   146107742.495176   -30673122.864890   -12977240.941544   6.7396123  26.4804144  11.7416853    -0.000005761967     0.000001209516     0.000000511722
2037-08-21T19:42:20.496352   147830190.808716   -22887821.931808    -9526208.540829   5.0461293  26.7889694  11.8713231    -0.000005825361     0.000000901794     0.000000375336
2037-08-25T04:52:37.551293   149055346.616946   -15025534.135233    -6043133.345458   3.3369809  27.0072056  11.9609423    -0.000005869164     0.000000591527     0.000000237902
2037-08-28T14:02:54.606233   149779469.426707    -7112746.248737    -2539747.699426   1.6179062  27.1345306  12.0103041    -0.000005893291     0.000000279749     0.000000099881
2037-08-31T22:40:24.769388   150000695.458933      770484.491699      948525.199313  -0.0937405  27.1707161  12.0193778    -0.000005897757    -0.000000030404    -0.000000037342
2037-09-04T07:17:54.932543   149725200.073279     8651157.616204     4433654.391554  -1.8038672  27.1169332  11.9886574    -0.000005882830    -0.000000340020    -0.000000174250
2037-09-07T15:55:25.095698   148954240.503068    16503196.686086     7904109.282219  -3.5068588  26.9734835  11.9182992    -0.000005848614    -0.000000648097    -0.000000310398
2037-09-11T00:32:55.258853   147690697.582972    24300654.350055    11348422.946833  -5.1971385  26.7409576  11.8085868    -0.000005795269    -0.000000953645    -0.000000445351
2037-09-14T08:51:49.687602   145946724.796833    31988318.007473    14742219.683075  -6.8627996  26.4216323  11.6605759    -0.000005723333    -0.000001254532    -0.000000578166
2037-09-17T17:10:44.116352   143724417.394243    39571135.207465    18087696.640193  -8.5049820  26.0159277  11.4744476    -0.000005632912    -0.000001550990    -0.000000708947
2037-09-21T01:29:38.545101   141031332.515261    47024329.214427    21373923.705728 -10.1183875  25.5252601  11.2508499    -0.000005524338    -0.000001842086    -0.000000837281
2037-09-24T09:48:32.973851   137876543.633748    54323570.729273    24590174.863234 -11.6978219  24.9513116  10.9905482    -0.000005397995    -0.000002126910    -0.000000962770
2037-09-27T18:18:49.229768   134261582.772820    61461620.414299    27733253.797830 -13.2417917  24.2943849  10.6936824    -0.000005253960    -0.000002405220    -0.000001085304
2037-10-01T02:49:05.485686   130205441.967394    68397703.760754    30785199.676254 -14.7415530  23.5579471  10.3618217    -0.000005093001    -0.000002675467    -0.000001204204
2037-10-04T11:19:21.741604   125721637.312930    75109127.968168    33736028.452196 -16.1922774  22.7444576   9.9960737    -0.000004915656    -0.000002936810    -0.000001319098
2037-10-07T19:49:37.997522   120825060.148826    81573947.119047    36576092.054726 -17.5893004  21.8566154   9.5976511    -0.000004722512    -0.000003188437    -0.000001429630
2037-10-11T04:35:45.646178   115513919.015008    87790912.038527    39304830.630486 -18.9324279  20.8940869   9.1664074    -0.000004513493    -0.000003430341    -0.000001535796
2037-10-14T13:21:53.294834   109821283.547339    93717935.665041    41903759.726652 -20.2126424  19.8628486   8.7050227    -0.000004289891    -0.000003660925    -0.000001636896
2037-10-17T22:08:00.943490   103766053.496874    99335528.524556    44364334.181918 -21.4258076  18.7662970   8.2150164    -0.000004052430    -0.000003879470    -0.000001732614
2037-10-21T06:54:08.592146    97368299.563085   104625217.707753    46678463.282766 -22.5680042  17.6080325   7.6979972    -0.000003801875    -0.000004085297    -0.000001822652
2037-10-24T15:55:07.021998    90628144.188144   109584206.190167    48844910.181664 -23.6386926  16.3880369   7.1539591    -0.000003538204    -0.000004278331    -0.000001906978
2037-10-28T00:56:05.451850    83587094.393348   114179359.449873    50849185.012481 -24.6307780  15.1137757   6.5862335    -0.000003263011    -0.000004457316    -0.000001985043
2037-10-31T09:57:03.881702    76268553.228958   118395456.624097    52684649.191595 -25.5410274  13.7894300   5.9966831    -0.000002977176    -0.000004621688    -0.000002056599
2037-11-03T18:58:02.311554    68696828.580458   122218518.580674    54345217.114709 -26.3664690  12.4193387   5.3872393    -0.000002681610    -0.000004770926    -0.000002121422
2037-11-07T04:06:26.269499    60884980.123946   125640758.109001    55827496.783404 -27.1054598  11.0058008   4.7589259    -0.000002376780    -0.000004904748    -0.000002179387
2037-11-10T13:14:50.227445    52870389.354839   128644615.646249    57123871.646573 -27.7542384   9.5555125   4.1147202    -0.000002064102    -0.000005022485    -0.000002230205
2037-11-13T22:23:14.185390    44679728.408737   131220048.512111    58230007.077428 -28.3106570   8.0732291   3.4567349    -0.000001744570    -0.000005123754    -0.000002273710
2037-11-17T07:31:38.143335    36340254.089641   133358417.673602    59142191.760735 -28.7728615   6.5638109   2.7871272    -0.000001419201    -0.000005208223    -0.000002309759
2037-11-20T16:44:44.145488    27871502.427499   135053937.361130    59857945.325007 -29.1396046   5.0307195   2.1074337    -0.000001088708    -0.000005275667    -0.000002338256
2037-11-24T01:57:50.147642    19309704.317648   136298566.048255    60373857.131304 -29.4091414   3.4804397   1.4205301    -0.000000754459    -0.000005325762    -0.000002359063
2037-11-27T11:10:56.149796    10683426.872473   137088022.790304    60688149.091465 -29.5805292   1.9180713   0.7286764    -0.000000417521    -0.000005358330    -0.000002372106
